[Satellite]
VERSION=1.1
NAME=GPS BIIRM-3 (PRN 12)
NICKNAME=GPS BIIRM-3 (PRN 12)
TLE1=1 29601U 06052A   18020.16469161 -.00000053  00000-0  00000+0 0  9994
TLE2=2 29601  56.5930 335.3496 0066520  51.0544 309.5396  2.00565939 81888
